ELYSIUM STAR 2 & LFF    
1 43760U 18099C   24273.09437604  .00157317  00000+0  34815-2 0  9994
2 43760  97.5026 342.2528 0005983 243.5785 116.4849 15.43182128319153
